{
  "type": "FeatureCollection",
  "features": [
    {
      "type": "Feature",
      "properties": {
        "norad_id": 41581,
        "name": "INTELSAT 31 (IS-31)",
        "group": "intelsat",
        "lat": 0.01360380244071817,
        "lon": -31.518366592872347,
        "alt_km": 35789.54140015186,
        "timestamp": "2025-12-14T22:38:40.427252+00:00",
        "meta_object_name": "INTELSAT 31 (IS-31)",
        "meta_object_id": "2016-035A",
        "meta_epoch": "2025-12-14T02:41:36.595104",
        "meta_mean_motion": 1.00272578,
        "meta_eccentricity": 0.00019083,
        "meta_inclination": 0.0192,
        "meta_ra_of_asc_node": 270.6187,
        "meta_arg_of_pericenter": 300.5753,
        "meta_mean_anomaly": 177.1907,
        "meta_ephemeris_type": 0,
        "meta_classification_type": "U",
        "meta_norad_cat_id": 41581,
        "meta_element_set_no": 999,
        "meta_rev_at_epoch": 3482,
        "meta_bstar": 0,
        "meta_mean_motion_dot": -1.34e-06,
        "meta_mean_motion_ddot": 0,
        "tle_line1": "1 41581U 16035A   25348.11222911 -.00000134  00000+0  00000+0 0  9992",
        "tle_line2": "2 41581   0.0192 270.6187 0001908 300.5753 177.1907  1.00272578 34826"
      },
      "geometry": {
        "type": "Point",
        "coordinates": [
          -31.518366592872347,
          0.01360380244071817
        ]
      }
    },
    {
      "type": "Feature",
      "properties": {
        "norad_id": 41747,
        "name": "INTELSAT 36 (IS-36)",
        "group": "intelsat",
        "lat": 0.01793806693840162,
        "lon": 132.0028279437151,
        "alt_km": 35791.36366688056,
        "timestamp": "2025-12-14T22:38:40.427264+00:00",
        "meta_object_name": "INTELSAT 36 (IS-36)",
        "meta_object_id": "2016-053A",
        "meta_epoch": "2025-12-14T05:10:52.299840",
        "meta_mean_motion": 1.00271084,
        "meta_eccentricity": 0.00012451,
        "meta_inclination": 0.0113,
        "meta_ra_of_asc_node": 355.5011,
        "meta_arg_of_pericenter": 329.0243,
        "meta_mean_anomaly": 264.8185,
        "meta_ephemeris_type": 0,
        "meta_classification_type": "U",
        "meta_norad_cat_id": 41747,
        "meta_element_set_no": 999,
        "meta_rev_at_epoch": 3409,
        "meta_bstar": 0,
        "meta_mean_motion_dot": -7e-08,
        "meta_mean_motion_ddot": 0,
        "tle_line1": "1 41747U 16053A   25348.21588310 -.00000007  00000+0  00000+0 0  9994",
        "tle_line2": "2 41747   0.0113 355.5011 0001245 329.0243 264.8185  1.00271084 34098"
      },
      "geometry": {
        "type": "Point",
        "coordinates": [
          132.0028279437151,
          0.01793806693840162
        ]
      }
    },
    {
      "type": "Feature",
      "properties": {
        "norad_id": 41945,
        "name": "INTELSAT 32E (IS-32E)",
        "group": "intelsat",
        "lat": -0.009245601263163065,
        "lon": 20.329344596589305,
        "alt_km": 35784.07750669156,
        "timestamp": "2025-12-14T22:38:40.427275+00:00",
        "meta_object_name": "INTELSAT 32E (IS-32E)",
        "meta_object_id": "2017-007B",
        "meta_epoch": "2025-12-14T04:39:10.335168",
        "meta_mean_motion": 1.00271461,
        "meta_eccentricity": 5.177e-05,
        "meta_inclination": 0.0343,
        "meta_ra_of_asc_node": 82.1213,
        "meta_arg_of_pericenter": 296.656,
        "meta_mean_anomaly": 90.9489,
        "meta_ephemeris_type": 0,
        "meta_classification_type": "U",
        "meta_norad_cat_id": 41945,
        "meta_element_set_no": 999,
        "meta_rev_at_epoch": 3237,
        "meta_bstar": 0,
        "meta_mean_motion_dot": -2.51e-06,
        "meta_mean_motion_ddot": 0,
        "tle_line1": "1 41945U 17007B   25348.19386962 -.00000251  00000+0  00000+0 0  9991",
        "tle_line2": "2 41945   0.0343  82.1213 0000517 296.6560  90.9489  1.00271461 32375"
      },
      "geometry": {
        "type": "Point",
        "coordinates": [
          20.329344596589305,
          -0.009245601263163065
        ]
      }
    },
    {
      "type": "Feature",
      "properties": {
        "norad_id": 42818,
        "name": "INTELSAT 35E (IS-35E)",
        "group": "intelsat",
        "lat": 0.03536531703358254,
        "lon": 29.041679557791745,
        "alt_km": 35789.55578588206,
        "timestamp": "2025-12-14T22:38:40.427287+00:00",
        "meta_object_name": "INTELSAT 35E (IS-35E)",
        "meta_object_id": "2017-041A",
        "meta_epoch": "2025-12-14T06:24:22.758912",
        "meta_mean_motion": 1.00275463,
        "meta_eccentricity": 0.00021356,
        "meta_inclination": 0.0231,
        "meta_ra_of_asc_node": 337.8472,
        "meta_arg_of_pericenter": 291.7851,
        "meta_mean_anomaly": 235.149,
        "meta_ephemeris_type": 0,
        "meta_classification_type": "U",
        "meta_norad_cat_id": 42818,
        "meta_element_set_no": 999,
        "meta_rev_at_epoch": 3096,
        "meta_bstar": 0,
        "meta_mean_motion_dot": 0,
        "meta_mean_motion_ddot": 0,
        "tle_line1": "1 42818U 17041A   25348.26693008  .00000000  00000+0  00000+0 0  9990",
        "tle_line2": "2 42818   0.0231 337.8472 0002135 291.7851 235.1490  1.00275463 30969"
      },
      "geometry": {
        "type": "Point",
        "coordinates": [
          29.041679557791745,
          0.03536531703358254
        ]
      }
    },
    {
      "type": "Feature",
      "properties": {
        "norad_id": 42950,
        "name": "INTELSAT 37E (IS-37E)",
        "group": "intelsat",
        "lat": 0.0014646099262359995,
        "lon": 45.53872029334688,
        "alt_km": 35796.91967357999,
        "timestamp": "2025-12-14T22:38:40.427299+00:00",
        "meta_object_name": "INTELSAT 37E (IS-37E)",
        "meta_object_id": "2017-059A",
        "meta_epoch": "2025-12-14T06:29:07.305216",
        "meta_mean_motion": 1.00272141,
        "meta_eccentricity": 0.00030233,
        "meta_inclination": 0.0037,
        "meta_ra_of_asc_node": 73.3863,
        "meta_arg_of_pericenter": 183.646,
        "meta_mean_anomaly": 265.4459,
        "meta_ephemeris_type": 0,
        "meta_classification_type": "U",
        "meta_norad_cat_id": 42950,
        "meta_element_set_no": 999,
        "meta_rev_at_epoch": 3021,
        "meta_bstar": 0,
        "meta_mean_motion_dot": -1.23e-06,
        "meta_mean_motion_ddot": 0,
        "tle_line1": "1 42950U 17059A   25348.27022344 -.00000123  00000+0  00000+0 0  9993",
        "tle_line2": "2 42950   0.0037  73.3863 0003023 183.6460 265.4459  1.00272141 30217"
      },
      "geometry": {
        "type": "Point",
        "coordinates": [
          45.53872029334688,
          0.0014646099262359995
        ]
      }
    },
    {
      "type": "Feature",
      "properties": {
        "norad_id": 43632,
        "name": "AZERSPACE 2 (IS-38)",
        "group": "intelsat",
        "lat": 0.026011668175956883,
        "lon": 108.62181604933218,
        "alt_km": 35791.1972118172,
        "timestamp": "2025-12-14T22:38:40.427310+00:00",
        "meta_object_name": "AZERSPACE 2 (IS-38)",
        "meta_object_id": "2018-074A",
        "meta_epoch": "2025-12-14T06:46:58.095840",
        "meta_mean_motion": 1.00270341,
        "meta_eccentricity": 0.00012827,
        "meta_inclination": 0.0192,
        "meta_ra_of_asc_node": 326.4422,
        "meta_arg_of_pericenter": 294.2058,
        "meta_mean_anomaly": 329.4162,
        "meta_ephemeris_type": 0,
        "meta_classification_type": "U",
        "meta_norad_cat_id": 43632,
        "meta_element_set_no": 999,
        "meta_rev_at_epoch": 2659,
        "meta_bstar": 0,
        "meta_mean_motion_dot": 1.54e-06,
        "meta_mean_motion_ddot": 0,
        "tle_line1": "1 43632U 18074A   25348.28261685  .00000154  00000+0  00000+0 0  9996",
        "tle_line2": "2 43632   0.0192 326.4422 0001282 294.2058 329.4162  1.00270341 26595"
      },
      "geometry": {
        "type": "Point",
        "coordinates": [
          108.62181604933218,
          0.026011668175956883
        ]
      }
    },
    {
      "type": "Feature",
      "properties": {
        "norad_id": 43633,
        "name": "HORIZONS-3E",
        "group": "intelsat",
        "lat": -0.006289175484891363,
        "lon": -127.51120330351418,
        "alt_km": 35784.00637070858,
        "timestamp": "2025-12-14T22:38:40.427322+00:00",
        "meta_object_name": "HORIZONS-3E",
        "meta_object_id": "2018-074B",
        "meta_epoch": "2025-12-14T05:39:42.038208",
        "meta_mean_motion": 1.00269869,
        "meta_eccentricity": 9.947e-05,
        "meta_inclination": 0.0445,
        "meta_ra_of_asc_node": 188.7053,
        "meta_arg_of_pericenter": 95.8686,
        "meta_mean_anomaly": 52.498,
        "meta_ephemeris_type": 0,
        "meta_classification_type": "U",
        "meta_norad_cat_id": 43633,
        "meta_element_set_no": 999,
        "meta_rev_at_epoch": 2648,
        "meta_bstar": 0,
        "meta_mean_motion_dot": -1.3e-07,
        "meta_mean_motion_ddot": 0,
        "tle_line1": "1 43633U 18074B   25348.23590322 -.00000013  00000+0  00000+0 0  9990",
        "tle_line2": "2 43633   0.0445 188.7053 0000994  95.8686  52.4980  1.00269869 26489"
      },
      "geometry": {
        "type": "Point",
        "coordinates": [
          -127.51120330351418,
          -0.006289175484891363
        ]
      }
    }
  ]
}